CUTE-1 (CO-55)          
1 27844U 03031E   26183.84293220  .00000336  00000+0  16430-3 0  9990
2 27844  98.6736 192.2049 0010444 134.8646 225.3382 14.24345534193900
CUBESAT XI-IV (CO-57)   
1 27848U 03031J   26183.76896903  .00000279  00000+0  14166-3 0  9992
2 27848  98.6769 191.8320 0009990 152.4134 207.7577 14.23629228193598
CUBESAT XI-V            
1 28895U 05043F   26183.69034545  .00001723  00000+0  27823-3 0  9997
2 28895  98.3002 339.6391 0014699 152.1460 208.0536 14.72675255104034
CUTE-1.7+APD II (CO-65) 
1 32785U 08021C   26183.89264118  .00007348  00000+0  46082-3 0  9999
2 32785  97.8286 165.6398 0008120 347.2751  12.8271 15.09606626987562
CANX-2                  
1 32790U 08021H   26183.70625624  .00004776  00000+0  33425-3 0  9997
2 32790  97.8637 163.7870 0010052   0.8570 359.2672 15.05726016987149
SEEDS II (CO-66)        
1 32791U 08021J   26183.80114904  .00020103  00000+0  62654-3 0  9991
2 32791  97.7521 182.4499 0001504 186.8338 173.2883 15.33292646989682
SWISSCUBE               
1 35932U 09051B   26183.28877764  .00001164  00000+0  23926-3 0  9992
2 35932  98.4025  91.4397 0007062 154.9157 205.2388 14.62510844891362
BEESAT-1                
1 35933U 09051C   26183.30608929  .00000968  00000+0  20391-3 0  9995
2 35933  98.3950  91.0608 0005269 165.6666 194.4685 14.61745142891393
ITUPSAT1                
1 35935U 09051E   26182.96766707  .00000816  00000+0  17832-3 0  9995
2 35935  98.4034  89.8935 0007122 182.8141 177.3019 14.60462418890892
TISAT 1                 
1 36799U 10035E   26183.79296906  .00022562  00000+0  72453-3 0  9991
2 36799  98.0713 131.7335 0003418 142.3895 217.7584 15.32310969870092
AEROCUBE 4.5A           
1 38767U 12048K   26180.81601320  .02026816  74244-5  11805-2 0  9992
2 38767  64.6148 340.0554 0018867 267.4936  92.4076 16.17962819374686
STRAND-1                
1 39090U 13009E   26183.44238219  .00000331  00000+0  12561-3 0  9991
2 39090  98.3927   3.3015 0008617 177.2756 182.8479 14.37172679699257
BRITE-AUSTRIA           
1 39091U 13009F   26183.74046976  .00000212  00000+0  86788-4 0  9993
2 39091  98.4001   2.7917 0009969 186.9933 173.1116 14.36548421699286
NEE-01 PEGASO           
1 39151U 13018B   26183.33816390  .00003478  00000+0  33370-3 0  9995
2 39151  98.1242 327.9905 0013773 112.9357 247.3317 14.93736499712968
POPACS 2                
1 39269U 13055E   26183.80939347  .00015668 -80973-6  25834-3 0  9991
2 39269  80.9919 126.3077 0416047 143.6252 219.4027 14.91638793665540
POPACS 3                
1 39270U 13055F   26183.78443051  .00010186  00000+0  24058-3 0  9994
2 39270  80.9990 212.2734 0550429  22.5213 339.9158 14.56416328640827
ZACUBE-1 (TSHEPISOSAT)  
1 39417U 13066B   26183.87097192  .00004239  00000+0  32820-3 0  9998
2 39417  97.8039 146.2874 0042982 194.8896 165.1066 15.01276634683089
WNISAT-1                
1 39423U 13066H   26183.65191517  .00001475  00000+0  27566-3 0  9997
2 39423  97.7221 331.7119 0162977 182.6990 177.3349 14.58096043668984
TRITON-1                
1 39427U 13066M   26183.82766405  .00001588  00000+0  19463-3 0  9996
2 39427  97.8239  93.2785 0089572 182.3670 177.7132 14.81755101676401
GOMX-1                  
1 39430U 13066Q   26183.84706964  .00001664  00000+0  25436-3 0  9998
2 39430  97.6469  23.3211 0129392  27.7802 333.0238 14.69511841672216
CUBEBUG-2 (LO-74)       
1 39440U 13066AA  26183.80423823  .00005629  00000+0  51857-3 0  9996
2 39440  97.8915 132.8497 0056650 337.4394  22.4336 14.93892803679324
NEE-02 KRYSAOR          
1 39441U 13066AB  26183.55500345  .00002950  00000+0  32516-3 0  9999
2 39441  97.8896 122.6607 0066609  20.7402 339.6493 14.86690645678485
FUNCUBE-1 (AO-73)       
1 39444U 13066AE  26183.83251640  .00008238  00000+0  50720-3 0  9996
2 39444  97.8285 155.6072 0037316 147.9891 212.3615 15.09682031682023
UWE-3                   
1 39446U 13066AG  26183.85568661  .00003935  00000+0  33855-3 0  9993
2 39446  97.8709 140.0374 0047189 267.5766  92.0052 14.97140347679926
BRITE-CA1 (TORONTO)     
1 40020U 14033L   26183.80085422  .00001167  00000+0  18267-3 0  9997
2 40020  97.9759 312.4427 0077610 226.2184 133.2586 14.72703454644518
DUCHIFAT-1              
1 40021U 14033M   26183.10087887  .00143832  00000+0  12875-2 0  9992
2 40021  98.0445 244.3920 0000096 180.5510 179.5749 15.67889029658082
NANOSATC-BR1            
1 40024U 14033Q   26183.81895969  .00020733  00000+0  67311-3 0  9991
2 40024  98.0706 217.5968 0005214 125.2783 234.8945 15.31971066656371
QB50P1                  
1 40025U 14033R   26183.76871566  .00009620  00000+0  46935-3 0  9994
2 40025  98.0961 196.0094 0009438 162.0321 198.1247 15.18500631655394
QB50P2                  
1 40032U 14033Y   26183.75085529  .00008472  00000+0  45245-3 0  9994
2 40032  98.0751 181.6017 0009163 118.5652 241.6502 15.15363125655022
PERSEUS-M2              
1 40037U 14033AD  26183.85317844  .00001125  00000+0  10686-3 0  9997
2 40037  97.9971 134.7141 0010516 246.2766 113.7352 14.95553853653122
